NORAD_CAT_ID,OBJECT_NAME,OBJECT_TYPE,EPOCH,MEAN_MOTION,ECCENTRICITY,INCLINATION,RA_OF_ASC_NODE,ARG_OF_PERICENTER,MEAN_ANOMALY,BSTAR,MEAN_MOTION_DOT,MEAN_MOTION_DDOT,TLE_LINE0,TLE_LINE1,TLE_LINE2,SEMIMAJOR_AXIS,PERIOD,APOGEE,PERIGEE,DECAYED
49139.0,STARLINK-3057,PAYLOAD,2022-10-23 13:23:33,14.98328909,0.0002969,69.9993,123.6172,266.6423,93.4396,7.228e-05,7.69e-06,0.0,0 STARLINK-3057,1 49139U 21082K   22296.55802679  .00000769  00000-0  72280-4 0  9997,2 49139  69.9993 123.6172 0002969 266.6423  93.4396 14.98328909 62252,6950.196,96.107,574.125,569.998,0.0
49139.0,STARLINK-3057,PAYLOAD,2022-10-23 18:11:57,14.98330275,0.0002976,69.9997,123.1126,267.1817,92.9001,8.3006e-05,8.98e-06,0.0,0 STARLINK-3057,1 49139U 21082K   22296.75830580  .00000898  00000-0  83006-4 0  9992,2 49139  69.9997 123.1126 0002976 267.1817  92.9001 14.98330275 62280,6950.191999999999,96.107,574.125,569.989,0.0
49139.0,STARLINK-3057,PAYLOAD,2022-10-23 23:00:21,14.98331695,0.000294,69.9997,122.6076,266.9692,93.1131,7.6843e-05,8.24e-06,0.0,0 STARLINK-3057,1 49139U 21082K   22296.95858511  .00000824  00000-0  76843-4 0  9998,2 49139  69.9997 122.6076 0002940 266.9692  93.1131 14.98331695 62315,6950.188,96.107,574.096,570.009,0.0
49139.0,STARLINK-3057,PAYLOAD,2022-10-24 11:49:26,14.98332504,0.0002874,69.9998,121.261,264.5231,95.5601,8.6949e-05,9.45e-06,0.0,0 STARLINK-3057,1 49139U 21082K   22297.49266327  .00000945  00000-0  86949-4 0  9998,2 49139  69.9998 121.2610 0002874 264.5231  95.5601 14.98332504 62390,6950.185,96.107,574.048,570.053,0.0
49139.0,STARLINK-3057,PAYLOAD,2022-10-24 18:13:58,14.98334086,0.0002872,69.9997,120.5877,265.9254,94.1577,7.266e-05,7.74e-06,0.0,0 STARLINK-3057,1 49139U 21082K   22297.75970218  .00000774  00000-0  72660-4 0  9993,2 49139  69.9997 120.5877 0002872 265.9254  94.1577 14.98334086 62433,6950.18,96.107,574.0409999999998,570.049,0.0
49139.0,STARLINK-3057,PAYLOAD,2022-10-25 11:51:26,14.9833735,0.0002982,69.9998,118.7365,268.4357,91.646,5.5758e-05,5.72e-06,0.0,0 STARLINK-3057,1 49139U 21082K   22298.49405753  .00000572  00000-0  55758-4 0  9997,2 49139  69.9998 118.7365 0002982 268.4357  91.6460 14.98337350 62541,6950.17,96.107,574.1080000000002,569.9630000000002,0.0
49139.0,STARLINK-3057,PAYLOAD,2022-10-25 19:52:06,14.98338716,0.0002969,69.9999,117.8949,268.1087,91.9732,6.552e-05,6.89e-06,0.0,0 STARLINK-3057,1 49139U 21082K   22298.82785456  .00000689  00000-0  65520-4 0  9992,2 49139  69.9999 117.8949 0002969 268.1087  91.9732 14.98338716 62599,6950.166,96.106,574.094,569.967,0.0
49139.0,STARLINK-3057,PAYLOAD,2022-10-26 13:29:35,14.9833277,0.0002774999999999,70.0003,116.0459,274.3381,85.74600000000002,-2.8086e-05,-4.28e-06,0.0,0 STARLINK-3057,1 49139U 21082K   22299.56221947 -.00000428  00000-0 -28086-4 0  9993,2 49139  70.0003 116.0459 0002775 274.3381  85.7460 14.98332770 62702,6950.184,96.107,573.9780000000002,570.121,0.0
49139.0,STARLINK-3057,PAYLOAD,2022-10-26 18:18:00,14.98325834,0.0003015,70.0,115.5383,267.1301,92.9513,-0.00010012,-1.287e-05,0.0,0 STARLINK-3057,1 49139U 21082K   22299.76250417 -.00001287  00000-0 -10012-3 0  9992,2 49139  70.0000 115.5383 0003015 267.1301  92.9513 14.98325834 62734,6950.206,96.107,574.1659999999998,569.975,0.0
49139.0,STARLINK-3057,PAYLOAD,2022-10-26 21:30:16,14.98326843,0.0002996,70.0001,115.2017,267.2299,92.8518,-8.5214e-05,-1.11e-05,0.0,0 STARLINK-3057,1 49139U 21082K   22299.89602331 -.00001110  00000-0 -85214-4 0  9994,2 49139  70.0001 115.2017 0002996 267.2299  92.8518 14.98326843 62757,6950.203,96.107,574.15,569.985,0.0
49139.0,STARLINK-3057,PAYLOAD,2022-10-27 11:55:29,14.98326385,0.0002751,70.0015,113.6867,262.5908,97.4938,-5.934e-05,-8.01e-06,0.0,0 STARLINK-3057,1 49139U 21082K   22300.49686387 -.00000801  00000-0 -59340-4 0  9993,2 49139  70.0015 113.6867 0002751 262.5908  97.4938 14.98326385 62849,6950.204000000002,96.107,573.981,570.1569999999998,0.0
49139.0,STARLINK-3057,PAYLOAD,2022-10-27 19:56:09,14.98326779,0.0002946,70.0007,112.8447,266.3409,93.7413,-4.3108e-05,-6.07e-06,0.0,0 STARLINK-3057,1 49139U 21082K   22300.83066395 -.00000607  00000-0 -43108-4 0  9991,2 49139  70.0007 112.8447 0002946 266.3409  93.7413 14.98326779 62898,6950.203,96.107,574.115,570.02,0.0
49139.0,STARLINK-3057,PAYLOAD,2022-10-27 21:32:17,14.98327189,0.0002893,70.0006,112.6764,265.1942,94.8887,-6.2429e-05,-8.38e-06,0.0,0 STARLINK-3057,1 49139U 21082K   22300.89742427 -.00000838  00000-0 -62429-4 0  9997,2 49139  70.0006 112.6764 0002893 265.1942  94.8887 14.98327189 62902,6950.2019999999975,96.107,574.077,570.056,0.0
49139.0,STARLINK-3057,PAYLOAD,2022-10-28 11:57:30,14.983232999999998,0.0003069,70.0002,111.1616,266.8512,93.2296,8.894299999999999e-05,9.68e-06,0.0,0 STARLINK-3057,1 49139U 21082K   22301.49826414  .00000968  00000-0  88943-4 0  9994,2 49139  70.0002 111.1616 0003069 266.8512  93.2296 14.98323300 62992,6950.214,96.107,574.212,569.946,0.0
49139.0,STARLINK-3057,PAYLOAD,2022-10-28 19:58:10,14.98323636,0.0003054,70.0003,110.3201,266.5922,93.4887,8.9147e-05,9.71e-06,0.0,0 STARLINK-3057,1 49139U 21082K   22301.83206576  .00000971  00000-0  89147-4 0  9994,2 49139  70.0003 110.3201 0003054 266.5922  93.4887 14.98323636 63047,6950.2130000000025,96.107,574.2,569.955,0.0
49139.0,STARLINK-3057,PAYLOAD,2022-10-28 21:34:18,14.98325241,0.0003047,70.0003,110.1516,266.7137,93.3673,0.00010594,1.171e-05,0.0,0 STARLINK-3057,1 49139U 21082K   22301.89882468  .00001171  00000-0  10594-3 0  9992,2 49139  70.0003 110.1516 0003047 266.7137  93.3673 14.98325241 63053,6950.208000000001,96.107,574.19,569.955,0.0
49139.0,STARLINK-3057,PAYLOAD,2022-10-29 21:36:19,14.9833209,0.0003058,70.0003,107.6266,267.4741,92.6068,0.00012629,1.414e-05,0.0,0 STARLINK-3057,1 49139U 21082K   22302.90022195  .00001414  00000-0  12629-3 0  9999,2 49139  70.0003 107.6266 0003058 267.4741  92.6068 14.98332090 63204,6950.186,96.107,574.177,569.9259999999998,0.0
49139.0,STARLINK-3057,PAYLOAD,2022-10-30 12:01:31,14.98337932,0.0003083999999999,70.0002,106.1118,265.821,94.2597,0.00014012,1.58e-05,0.0,0 STARLINK-3057,1 49139U 21082K   22303.50105656  .00001580  00000-0  14012-3 0  9992,2 49139  70.0002 106.1118 0003084 265.8210  94.2597 14.98337932 63299,6950.168000000002,96.106,574.177,569.89,0.0
49139.0,STARLINK-3057,PAYLOAD,2022-10-30 20:02:11,14.98339753,0.0003085,70.0002,105.27,266.8907,93.1899,0.00015074,1.706e-05,0.0,0 STARLINK-3057,1 49139U 21082K   22303.83485380  .00001706  00000-0  15074-3 0  9992,2 49139  70.0002 105.2700 0003085 266.8907  93.1899 14.98339753 63343,6950.163000000001,96.106,574.172,569.884,0.0
49139.0,STARLINK-3057,PAYLOAD,2022-10-31 10:27:24,14.98332631,0.0003142,70.0013,103.7564,267.0168,93.0631,-3.1941e-06,-1.31e-06,0.0,0 STARLINK-3057,1 49139U 21082K   22304.43570111 -.00000131  00000-0 -31941-5 0  9992,2 49139  70.0013 103.7564 0003142 267.0168  93.0631 14.98332631 63433,6950.185,96.107,574.234,569.866,0.0
49139.0,STARLINK-3057,PAYLOAD,2022-11-01 08:53:17,14.98336611,0.0003106999999999,69.9995,101.3984,266.8312,93.2492,1.2074000000000003e-05,5.1e-07,0.0,0 STARLINK-3057,1 49139U 21082K   22305.37033638  .00000051  00000-0  12074-4 0  9998,2 49139  69.9995 101.3984 0003107 266.8312  93.2492 14.98336611 63572,6950.172,96.107,574.197,569.878,0.0
49139.0,STARLINK-3057,PAYLOAD,2022-11-01 16:53:57,14.98336777,0.000329,69.9994,100.5565,268.0929,91.9853,-4.2095e-05,-5.95e-06,0.0,0 STARLINK-3057,1 49139U 21082K   22305.70413646 -.00000595  00000-0 -42095-4 0  9997,2 49139  69.9994 100.5565 0003290 268.0929  91.9853 14.98336777 63623,6950.172,96.107,574.3240000000002,569.75,0.0
49139.0,STARLINK-3057,PAYLOAD,2022-11-02 10:31:27,14.98316767,0.0003399999999999,69.9999,98.7057,266.4428,93.6343,-1.5183e-05,-2.74e-06,0.0,0 STARLINK-3057,1 49139U 21082K   22306.43851114 -.00000274  00000-0 -15183-4 0  9996,2 49139  69.9999  98.7057 0003400 266.4428  93.6343 14.98316767 63733,6950.234,96.108,574.462,569.736,0.0
49139.0,STARLINK-3057,PAYLOAD,2022-11-03 12:09:35,14.98335213,0.0002806,70.0004,96.0125,267.8653,92.2185,-5.1237e-05,-7.04e-06,0.0,0 STARLINK-3057,1 49139U 21082K   22307.50666606 -.00000704  00000-0 -51237-4 0  9993,2 49139  70.0004  96.0125 0002806 267.8653  92.2185 14.98335213 63897,6950.177,96.107,573.992,570.092,0.0
49139.0,STARLINK-3057,PAYLOAD,2022-11-03 20:10:16,14.98332942,0.0003526999999999,69.9996,95.1703,269.7099,90.3656,8.2582e-05,8.93e-06,0.0,0 STARLINK-3057,1 49139U 21082K   22307.84046466  .00000893  00000-0  82582-4 0  9990,2 49139  69.9996  95.1703 0003527 269.7099  90.3656 14.98332942 63946,6950.184,96.107,574.5,569.597,0.0
49139.0,STARLINK-3057,PAYLOAD,2022-11-04 10:35:28,14.98338497,0.0003183,70.0,93.6558,267.9451,92.1343,0.00026998,3.131e-05,0.0,0 STARLINK-3057,1 49139U 21082K   22308.44129841  .00003131  00000-0  26998-3 0  9992,2 49139  70.0000  93.6558 0003183 267.9451  92.1343 14.98338497 64031,6950.167,96.106,574.244,569.819,0.0
49139.0,STARLINK-3057,PAYLOAD,2022-11-05 09:01:20,14.98345037,0.0003266,69.9999,91.2992,266.3307,93.7478,0.0001767,2.017e-05,0.0,0 STARLINK-3057,1 49139U 21082K   22309.37593136  .00002017  00000-0  17670-3 0  9996,2 49139  69.9999  91.2992 0003266 266.3307  93.7478 14.98345037 64175,6950.146,96.106,574.281,569.741,0.0
49139.0,STARLINK-3057,PAYLOAD,2022-11-05 15:25:53,14.98334999,0.0002627,70.0003,90.6262,266.7492,93.3367,5.718399999999999e-05,5.89e-06,0.0,0 STARLINK-3057,1 49139U 21082K   22309.64297950  .00000589  00000-0  57184-4 0  9998,2 49139  70.0003  90.6262 0002627 266.7492  93.3367 14.98334999 64219,6950.177,96.107,573.868,570.217,0.0
49139.0,STARLINK-3057,PAYLOAD,2022-11-06 12:15:38,14.98336815,0.0003063,69.9999,88.4373,265.0505,95.0304,-5.9363e-05,-8.01e-06,0.0,0 STARLINK-3057,1 49139U 21082K   22310.51085745 -.00000801  00000-0 -59363-4 0  9993,2 49139  69.9999  88.4373 0003063 265.0505  95.0304 14.98336815 64343,6950.172,96.107,574.1659999999998,569.908,0.0
